{
    "type": "FeatureCollection",
    "features": [
        {
            "type": "Feature",
            "geometry": {
                "type": "Point",
                "coordinates": [
                    "-8.886430614572273",
                    "42.47128948158829"
                ]
            },
            "properties": {
                "name": "Concertos do Marisco",
                "location": "O Grove",
                "link": "https://www.gzmusica.com/axenda/eventdetail/31238/-/concertos-do-marisco.html",
                "dates": [
                    "2026-10-01",
                    "2026-10-02",
                    "2026-10-03",
                    "2026-10-04",
                    "2026-10-05",
                    "2026-10-06",
                    "2026-10-07",
                    "2026-10-08",
                    "2026-10-09",
                    "2026-10-10",
                    "2026-10-11"
                ]
            }
        },
        {
            "type": "Feature",
            "geometry": {
                "type": "Point",
                "coordinates": [
                    "-8.545774896899749",
                    "42.880754338521065"
                ]
            },
            "properties": {
                "name": "Plan G A Festa",
                "location": "Santiago de Compostela",
                "link": "https://www.gzmusica.com/axenda/eventdetail/31181/-/plan-g-a-festa.html",
                "dates": [
                    "2026-10-01"
                ]
            }
        },
        {
            "type": "Feature",
            "geometry": {
                "type": "Point",
                "coordinates": [
                    "-8.301578641558107",
                    "42.72991838993453"
                ]
            },
            "properties": {
                "name": "V Murallón de Son",
                "location": "A Bandeira, Manduás (Silleda)",
                "link": "https://www.gzmusica.com/axenda/eventdetail/31065/-/v-murallon-de-son.html",
                "dates": [
                    "2026-10-02",
                    "2026-10-03"
                ]
            }
        },
        {
            "type": "Feature",
            "geometry": {
                "type": "Point",
                "coordinates": [
                    "-8.545725350138525",
                    "42.88201869713713"
                ]
            },
            "properties": {
                "name": "Picafest",
                "location": "Santiago de Compostela",
                "link": "https://www.gzmusica.com/axenda/eventdetail/31236/-/picafest.html",
                "dates": [
                    "2026-10-02"
                ]
            }
        },
        {
            "type": "Feature",
            "geometry": {
                "type": "Point",
                "coordinates": [
                    "-8.545601511604028",
                    "42.88185409421773"
                ]
            },
            "properties": {
                "name": "I Berro",
                "location": "Santiago de Compostela",
                "link": "https://www.gzmusica.com/axenda/eventdetail/31188/-/i-berro.html",
                "dates": [
                    "2026-10-02"
                ]
            }
        },
        {
            "type": "Feature",
            "geometry": {
                "type": "Point",
                "coordinates": [
                    "-7.412918426280708",
                    "42.779709655118936"
                ]
            },
            "properties": {
                "name": "A Benvida Peleriña!",
                "location": "Sarria",
                "link": "https://www.gzmusica.com/axenda/eventdetail/31241/-/a-benvida-pelerina.html",
                "dates": [
                    "2026-10-02"
                ]
            }
        },
        {
            "type": "Feature",
            "geometry": {
                "type": "Point",
                "coordinates": [
                    "-7.792780767835656",
                    "42.08812299865548"
                ]
            },
            "properties": {
                "name": "Anxo Araujo",
                "location": "Vilar de Santos",
                "link": "https://www.gzmusica.com/axenda/eventdetail/31220/-/anxo-araujo.html",
                "dates": [
                    "2026-10-02"
                ]
            }
        },
        {
            "type": "Feature",
            "geometry": {
                "type": "Point",
                "coordinates": [
                    "-8.394689612296723",
                    "43.3715458153012"
                ]
            },
            "properties": {
                "name": "Gallaecia Ensemble Barroco + Niño de Elche",
                "location": "A Coruña",
                "link": "https://www.gzmusica.com/axenda/eventdetail/31135/-/gallaecia-ensemble-barroco-nino-de-elche.html",
                "dates": [
                    "2026-10-03"
                ]
            }
        },
        {
            "type": "Feature",
            "geometry": {
                "type": "Point",
                "coordinates": [
                    "-8.865644656533506",
                    "42.550986240887134"
                ]
            },
            "properties": {
                "name": "Son da Illa",
                "location": "A Illa de Arousa",
                "link": "https://www.gzmusica.com/axenda/eventdetail/31249/-/son-da-illa.html",
                "dates": [
                    "2026-10-03"
                ]
            }
        },
        {
            "type": "Feature",
            "geometry": {
                "type": "Point",
                "coordinates": [
                    "-8.394880735750288",
                    "43.37291736796478"
                ]
            },
            "properties": {
                "name": "Treboa Sonora",
                "location": "A Coruña",
                "link": "https://www.gzmusica.com/axenda/eventdetail/31130/-/treboa-sonora.html",
                "dates": [
                    "2026-10-03"
                ]
            }
        },
        {
            "type": "Feature",
            "geometry": {
                "type": "Point",
                "coordinates": [
                    "-8.232972461730023",
                    "43.48496276214087"
                ]
            },
            "properties": {
                "name": "IV Día da Criança Galegofalante",
                "location": "Ferrol",
                "link": "https://www.gzmusica.com/axenda/eventdetail/31190/-/iv-dia-da-crianca-galegofalante.html",
                "dates": [
                    "2026-10-03"
                ]
            }
        },
        {
            "type": "Feature",
            "geometry": {
                "type": "Point",
                "coordinates": [
                    "-7.496351248957037",
                    "41.949164265266376"
                ]
            },
            "properties": {
                "name": "V Festa da Vendima",
                "location": "Albarellos (Monterrei)",
                "link": "https://www.gzmusica.com/axenda/eventdetail/31198/-/v-festa-da-vendima.html",
                "dates": [
                    "2026-10-03"
                ]
            }
        },
        {
            "type": "Feature",
            "geometry": {
                "type": "Point",
                "coordinates": [
                    "-8.817364862850328",
                    "42.65064253819004"
                ]
            },
            "properties": {
                "name": "Ceiba Rimas",
                "location": "Rianxo",
                "link": "https://www.gzmusica.com/axenda/eventdetail/31242/-/ceiba-rimas.html",
                "dates": [
                    "2026-10-03"
                ]
            }
        },
        {
            "type": "Feature",
            "geometry": {
                "type": "Point",
                "coordinates": [
                    "-8.574524558348923",
                    "42.09758504744123"
                ]
            },
            "properties": {
                "name": "XIX Serán da Colleita",
                "location": "Parderrubias (Salceda de Caselas)",
                "link": "https://www.gzmusica.com/axenda/eventdetail/31187/-/xix-seran-da-colleita.html",
                "dates": [
                    "2026-10-03"
                ]
            }
        },
        {
            "type": "Feature",
            "geometry": {
                "type": "Point",
                "coordinates": [
                    "-8.544773277097143",
                    "42.88236470188347"
                ]
            },
            "properties": {
                "name": "Allo Negro + Burning",
                "location": "Santiago de Compostela",
                "link": "https://www.gzmusica.com/axenda/eventdetail/31237/-/allo-negro-burning.html",
                "dates": [
                    "2026-10-03"
                ]
            }
        },
        {
            "type": "Feature",
            "geometry": {
                "type": "Point",
                "coordinates": [
                    "-8.652913346335078",
                    "42.19821357758903"
                ]
            },
            "properties": {
                "name": "Cantometrics",
                "location": "O Rebullón, Tameiga (Mos)",
                "link": "https://www.gzmusica.com/axenda/eventdetail/31229/-/cantometrics.html",
                "dates": [
                    "2026-10-03"
                ]
            }
        },
        {
            "type": "Feature",
            "geometry": {
                "type": "Point",
                "coordinates": [
                    "-8.723765402523988",
                    "42.238154770909276"
                ]
            },
            "properties": {
                "name": "Urko + Zoa",
                "location": "Vigo",
                "link": "https://www.gzmusica.com/axenda/eventdetail/30806/-/urko-zoa.html",
                "dates": [
                    "2026-10-03"
                ]
            }
        },
        {
            "type": "Feature",
            "geometry": {
                "type": "Point",
                "coordinates": [
                    "-8.618785816264856",
                    "42.1621205735527"
                ]
            },
            "properties": {
                "name": "12º Montando Cristo Festival",
                "location": "O Porriño",
                "link": "https://www.gzmusica.com/axenda/eventdetail/31197/-/12-montando-cristo-festival.html",
                "dates": [
                    "2026-10-03"
                ]
            }
        },
        {
            "type": "Feature",
            "geometry": {
                "type": "Point",
                "coordinates": [
                    "-8.544497635737189",
                    "42.88141376461912"
                ]
            },
            "properties": {
                "name": "Radio Zapa + Ateneo Crew Dj´s",
                "location": "Santiago de Compostela",
                "link": "https://www.gzmusica.com/axenda/eventdetail/31126/-/radio-zapa-ateneo-crew-dj-s.html",
                "dates": [
                    "2026-10-03"
                ]
            }
        },
        {
            "type": "Feature",
            "geometry": {
                "type": "Point",
                "coordinates": [
                    "-7.792644321034042",
                    "42.08811491012378"
                ]
            },
            "properties": {
                "name": "Leo de Matamá",
                "location": "Vilar de Santos",
                "link": "https://www.gzmusica.com/axenda/eventdetail/31243/-/leo-de-matama.html",
                "dates": [
                    "2026-10-03"
                ]
            }
        },
        {
            "type": "Feature",
            "geometry": {
                "type": "Point",
                "coordinates": [
                    "-8.778254860113007",
                    "42.26593018398969"
                ]
            },
            "properties": {
                "name": "Zënzar",
                "location": "Cangas",
                "link": "https://www.gzmusica.com/axenda/eventdetail/31143/-/zenzar.html",
                "dates": [
                    "2026-10-03"
                ]
            }
        },
        {
            "type": "Feature",
            "geometry": {
                "type": "Point",
                "coordinates": [
                    "-8.3954832707974",
                    "43.37175089476761"
                ]
            },
            "properties": {
                "name": "Chicharrón + Sara Zozaya",
                "location": "A Coruña",
                "link": "https://www.gzmusica.com/axenda/eventdetail/31136/-/chicharron-sara-zozaya.html",
                "dates": [
                    "2026-10-04"
                ]
            }
        },
        {
            "type": "Feature",
            "geometry": {
                "type": "Point",
                "coordinates": [
                    "-7.554961001114626",
                    "43.01309183974718"
                ]
            },
            "properties": {
                "name": "San Froilán",
                "location": "Lugo",
                "link": "https://www.gzmusica.com/axenda/eventdetail/31109/-/san-froilan.html",
                "dates": [
                    "2026-10-04",
                    "2026-10-05",
                    "2026-10-06",
                    "2026-10-07",
                    "2026-10-08",
                    "2026-10-09",
                    "2026-10-10",
                    "2026-10-11",
                    "2026-10-12"
                ]
            }
        },
        {
            "type": "Feature",
            "geometry": {
                "type": "Point",
                "coordinates": [
                    "-7.793668346102285",
                    "42.0885443373638"
                ]
            },
            "properties": {
                "name": "As Terreiras",
                "location": "Vilar de Santos",
                "link": "https://www.gzmusica.com/axenda/eventdetail/31244/-/as-terreiras.html",
                "dates": [
                    "2026-10-04"
                ]
            }
        },
        {
            "type": "Feature",
            "geometry": {
                "type": "Point",
                "coordinates": [
                    "-8.723475713600175",
                    "42.238200668139214"
                ]
            },
            "properties": {
                "name": "Suena Vigo!",
                "location": "Vigo",
                "link": "https://www.gzmusica.com/axenda/eventdetail/31240/-/suena-vigo.html",
                "dates": [
                    "2026-10-04"
                ]
            }
        },
        {
            "type": "Feature",
            "geometry": {
                "type": "Point",
                "coordinates": [
                    "-8.722761771581958",
                    "42.238463605442824"
                ]
            },
            "properties": {
                "name": "Agora Guerrilla",
                "location": "Vigo",
                "link": "https://www.gzmusica.com/axenda/eventdetail/29911/-/agora-guerrilla.html",
                "dates": [
                    "2026-10-09"
                ]
            }
        },
        {
            "type": "Feature",
            "geometry": {
                "type": "Point",
                "coordinates": [
                    "-8.394817762729842",
                    "43.371584029553254"
                ]
            },
            "properties": {
                "name": "Brais Morán & Nasaufunk + Sr Salvaje",
                "location": "A Coruña",
                "link": "https://www.gzmusica.com/axenda/eventdetail/31219/-/brais-moran-nasaufunk-sr-salvaje.html",
                "dates": [
                    "2026-10-09"
                ]
            }
        },
        {
            "type": "Feature",
            "geometry": {
                "type": "Point",
                "coordinates": [
                    "-8.778766469472993",
                    "42.26547153051623"
                ]
            },
            "properties": {
                "name": "Foliada no Adro",
                "location": "Cangas",
                "link": "https://www.gzmusica.com/axenda/eventdetail/31222/-/foliada-no-adro.html",
                "dates": [
                    "2026-10-09"
                ]
            }
        },
        {
            "type": "Feature",
            "geometry": {
                "type": "Point",
                "coordinates": [
                    "-8.885228935776937",
                    "42.64800415901743"
                ]
            },
            "properties": {
                "name": "Caamaño & Ameixeiras",
                "location": "Boiro",
                "link": "https://www.gzmusica.com/axenda/eventdetail/31163/-/caamano-ameixeiras.html",
                "dates": [
                    "2026-10-09"
                ]
            }
        },
        {
            "type": "Feature",
            "geometry": {
                "type": "Point",
                "coordinates": [
                    "-8.406214552239225",
                    "43.07812874774096"
                ]
            },
            "properties": {
                "name": "VI A Convidada",
                "location": "Ordes",
                "link": "https://www.gzmusica.com/axenda/eventdetail/31141/-/vi-a-convidada.html",
                "dates": [
                    "2026-10-10"
                ]
            }
        },
        {
            "type": "Feature",
            "geometry": {
                "type": "Point",
                "coordinates": [
                    "-8.82916533465584",
                    "42.4227761170236"
                ]
            },
            "properties": {
                "name": "XV Xornada Cultural Folclórica Soalleira",
                "location": "Sanxenxo",
                "link": "https://www.gzmusica.com/axenda/eventdetail/31149/-/xv-xornada-cultural-folclorica-soalleira.html",
                "dates": [
                    "2026-10-10"
                ]
            }
        },
        {
            "type": "Feature",
            "geometry": {
                "type": "Point",
                "coordinates": [
                    "-8.702229698023416",
                    "42.393650023978104"
                ]
            },
            "properties": {
                "name": "Serán de Ansur",
                "location": "Marín",
                "link": "https://www.gzmusica.com/axenda/eventdetail/31218/-/seran-de-ansur.html",
                "dates": [
                    "2026-10-10"
                ]
            }
        },
        {
            "type": "Feature",
            "geometry": {
                "type": "Point",
                "coordinates": [
                    "-8.9279300704569",
                    "42.5920176534473"
                ]
            },
            "properties": {
                "name": "Festival A Trastenda",
                "location": "Os Areos, O Xobre (A Pobra do Caramiñal)",
                "link": "https://www.gzmusica.com/axenda/eventdetail/31253/-/festival-a-trastenda.html",
                "dates": [
                    "2026-10-10"
                ]
            }
        },
        {
            "type": "Feature",
            "geometry": {
                "type": "Point",
                "coordinates": [
                    "-7.794111044954286",
                    "42.0874954713698"
                ]
            },
            "properties": {
                "name": "Blues do País",
                "location": "Vilar de Santos",
                "link": "https://www.gzmusica.com/axenda/eventdetail/31245/-/blues-do-pais.html",
                "dates": [
                    "2026-10-10"
                ]
            }
        },
        {
            "type": "Feature",
            "geometry": {
                "type": "Point",
                "coordinates": [
                    "-8.779269005410159",
                    "42.265728024424135"
                ]
            },
            "properties": {
                "name": "Mascada + Charming Putos",
                "location": "Cangas",
                "link": "https://www.gzmusica.com/axenda/eventdetail/31223/-/mascada-charming-putos.html",
                "dates": [
                    "2026-10-10"
                ]
            }
        },
        {
            "type": "Feature",
            "geometry": {
                "type": "Point",
                "coordinates": [
                    "-8.777711734851035",
                    "42.26535872873341"
                ]
            },
            "properties": {
                "name": "Lidia India",
                "location": "Cangas",
                "link": "https://www.gzmusica.com/axenda/eventdetail/31224/-/lidia-india.html",
                "dates": [
                    "2026-10-11"
                ]
            }
        },
        {
            "type": "Feature",
            "geometry": {
                "type": "Point",
                "coordinates": [
                    "-8.886235851933208",
                    "42.47222979808707"
                ]
            },
            "properties": {
                "name": "Concertos do marisco",
                "location": "O Grove",
                "link": "https://www.gzmusica.com/axenda/eventdetail/31108/-/concertos-do-marisco.html",
                "dates": [
                    "2026-10-12"
                ]
            }
        },
        {
            "type": "Feature",
            "geometry": {
                "type": "Point",
                "coordinates": [
                    "-8.723277145932725",
                    "42.23832315399823"
                ]
            },
            "properties": {
                "name": "Tonhito de Poi",
                "location": "Vigo",
                "link": "https://www.gzmusica.com/axenda/eventdetail/31250/-/tonhito-de-poi.html",
                "dates": [
                    "2026-10-16"
                ]
            }
        },
        {
            "type": "Feature",
            "geometry": {
                "type": "Point",
                "coordinates": [
                    "-8.886214570034976",
                    "42.470722073365216"
                ]
            },
            "properties": {
                "name": "VIII Nos Seus Pés",
                "location": "O Grove",
                "link": "https://www.gzmusica.com/axenda/eventdetail/31193/-/viii-nos-seus-pes.html",
                "dates": [
                    "2026-10-16",
                    "2026-10-17",
                    "2026-10-18"
                ]
            }
        },
        {
            "type": "Feature",
            "geometry": {
                "type": "Point",
                "coordinates": [
                    "-9.03075272486793",
                    "43.11036863750821"
                ]
            },
            "properties": {
                "name": "XI Muinhada de Vimianzo",
                "location": "Vimianzo",
                "link": "https://www.gzmusica.com/axenda/eventdetail/31148/-/xi-muinhada-de-vimianzo.html",
                "dates": [
                    "2026-10-16",
                    "2026-10-17"
                ]
            }
        },
        {
            "type": "Feature",
            "geometry": {
                "type": "Point",
                "coordinates": [
                    "-7.81102655141425",
                    "43.62128307218586"
                ]
            },
            "properties": {
                "name": "XIV Foliada Popular",
                "location": "Devesos (Ortigueira)",
                "link": "https://www.gzmusica.com/axenda/eventdetail/31217/-/xiv-foliada-popular.html",
                "dates": [
                    "2026-10-16"
                ]
            }
        },
        {
            "type": "Feature",
            "geometry": {
                "type": "Point",
                "coordinates": [
                    "-8.779643305904123",
                    "42.265298775804276"
                ]
            },
            "properties": {
                "name": "The Lelli Kelly´s + 800 Gondomar + Dj Gramola",
                "location": "Cangas",
                "link": "https://www.gzmusica.com/axenda/eventdetail/31225/-/the-lelli-kelly-s-800-gondomar-dj-gramola.html",
                "dates": [
                    "2026-10-16"
                ]
            }
        },
        {
            "type": "Feature",
            "geometry": {
                "type": "Point",
                "coordinates": [
                    "-8.723876065588458",
                    "42.23901861943108"
                ]
            },
            "properties": {
                "name": "Brais Ninguén & Couto 90",
                "location": "Vigo",
                "link": "https://www.gzmusica.com/axenda/eventdetail/31216/-/brais-ninguen-couto-90.html",
                "dates": [
                    "2026-10-17"
                ]
            }
        },
        {
            "type": "Feature",
            "geometry": {
                "type": "Point",
                "coordinates": [
                    "-8.72452271848265",
                    "42.23780811401154"
                ]
            },
            "properties": {
                "name": "Cividade Hill + The Blind Path",
                "location": "Vigo",
                "link": "https://www.gzmusica.com/axenda/eventdetail/31251/-/cividade-hill-the-blind-path.html",
                "dates": [
                    "2026-10-17"
                ]
            }
        },
        {
            "type": "Feature",
            "geometry": {
                "type": "Point",
                "coordinates": [
                    "-8.116584834016594",
                    "42.51277615297843"
                ]
            },
            "properties": {
                "name": "IV Bullada de Outono",
                "location": "O Irixo",
                "link": "https://www.gzmusica.com/axenda/eventdetail/31239/-/iv-bullada-de-outono.html",
                "dates": [
                    "2026-10-17"
                ]
            }
        },
        {
            "type": "Feature",
            "geometry": {
                "type": "Point",
                "coordinates": [
                    "-8.395285844655188",
                    "43.371910741768964"
                ]
            },
            "properties": {
                "name": "Tanxugueiras + Lagharteiras",
                "location": "A Coruña",
                "link": "https://www.gzmusica.com/axenda/eventdetail/31075/-/tanxugueiras-lagharteiras.html",
                "dates": [
                    "2026-10-17"
                ]
            }
        },
        {
            "type": "Feature",
            "geometry": {
                "type": "Point",
                "coordinates": [
                    "-7.79319194729736",
                    "42.08886288913148"
                ]
            },
            "properties": {
                "name": "Montedapena",
                "location": "Vilar de Santos",
                "link": "https://www.gzmusica.com/axenda/eventdetail/31246/-/montedapena.html",
                "dates": [
                    "2026-10-17"
                ]
            }
        },
        {
            "type": "Feature",
            "geometry": {
                "type": "Point",
                "coordinates": [
                    "-8.504425026384022",
                    "42.17465433511791"
                ]
            },
            "properties": {
                "name": "Lelli Kelly´s + 800 Gondomar",
                "location": "Ponteareas",
                "link": "https://www.gzmusica.com/axenda/eventdetail/31248/-/lelli-kelly-s-800-gondomar.html",
                "dates": [
                    "2026-10-17"
                ]
            }
        },
        {
            "type": "Feature",
            "geometry": {
                "type": "Point",
                "coordinates": [
                    "-8.395486689359466",
                    "43.371019733857565"
                ]
            },
            "properties": {
                "name": "Mercedes Peón + Clara Peya",
                "location": "A Coruña",
                "link": "https://www.gzmusica.com/axenda/eventdetail/31137/-/mercedes-peon-clara-peya.html",
                "dates": [
                    "2026-10-18"
                ]
            }
        },
        {
            "type": "Feature",
            "geometry": {
                "type": "Point",
                "coordinates": [
                    "-8.395197108165432",
                    "43.372517367335284"
                ]
            },
            "properties": {
                "name": "21º Ciclo de Coros Galegos",
                "location": "A Coruña",
                "link": "https://www.gzmusica.com/axenda/eventdetail/31088/-/21-ciclo-de-coros-galegos.html",
                "dates": [
                    "2026-10-18"
                ]
            }
        },
        {
            "type": "Feature",
            "geometry": {
                "type": "Point",
                "coordinates": [
                    "-8.395061670452721",
                    "43.370982715045834"
                ]
            },
            "properties": {
                "name": "Pablo Sanmamed Quartet",
                "location": "A Coruña",
                "link": "https://www.gzmusica.com/axenda/eventdetail/31252/-/pablo-sanmamed-quartet.html",
                "dates": [
                    "2026-10-21"
                ]
            }
        },
        {
            "type": "Feature",
            "geometry": {
                "type": "Point",
                "coordinates": [
                    "-8.544903097562564",
                    "42.880778944254004"
                ]
            },
            "properties": {
                "name": "Hugo Guezeta",
                "location": "Santiago de Compostela",
                "link": "https://www.gzmusica.com/axenda/eventdetail/31185/-/hugo-guezeta.html",
                "dates": [
                    "2026-10-24"
                ]
            }
        },
        {
            "type": "Feature",
            "geometry": {
                "type": "Point",
                "coordinates": [
                    "-7.363012646989589",
                    "43.43035497307588"
                ]
            },
            "properties": {
                "name": "As San Lucas. Terras de Encontro",
                "location": "Mondoñedo",
                "link": "https://www.gzmusica.com/axenda/eventdetail/31221/-/as-san-lucas-terras-de-encontro.html",
                "dates": [
                    "2026-10-24"
                ]
            }
        },
        {
            "type": "Feature",
            "geometry": {
                "type": "Point",
                "coordinates": [
                    "-8.035297410901393",
                    "43.139271334078884"
                ]
            },
            "properties": {
                "name": "XIV Ruada de Teixeiro",
                "location": "Teixeiro, Curtis (Curtis)",
                "link": "https://www.gzmusica.com/axenda/eventdetail/31103/-/xiv-ruada-de-teixeiro.html",
                "dates": [
                    "2026-10-24"
                ]
            }
        },
        {
            "type": "Feature",
            "geometry": {
                "type": "Point",
                "coordinates": [
                    "-8.777845915380647",
                    "42.26537775742078"
                ]
            },
            "properties": {
                "name": "Homenaxe a Pichi",
                "location": "Cangas",
                "link": "https://www.gzmusica.com/axenda/eventdetail/31226/-/homenaxe-a-pichi.html",
                "dates": [
                    "2026-10-24"
                ]
            }
        },
        {
            "type": "Feature",
            "geometry": {
                "type": "Point",
                "coordinates": [
                    "-8.395915021168717",
                    "43.37215309793006"
                ]
            },
            "properties": {
                "name": "A Pedreira + Beautify Junkyards",
                "location": "A Coruña",
                "link": "https://www.gzmusica.com/axenda/eventdetail/31138/-/a-pedreira-beautify-junkyards.html",
                "dates": [
                    "2026-10-25"
                ]
            }
        },
        {
            "type": "Feature",
            "geometry": {
                "type": "Point",
                "coordinates": [
                    "-8.811997591749561",
                    "42.51518919257286"
                ]
            },
            "properties": {
                "name": "Anxo Araújo",
                "location": "Cambados",
                "link": "https://www.gzmusica.com/axenda/eventdetail/31230/-/anxo-araujo.html",
                "dates": [
                    "2026-10-25"
                ]
            }
        },
        {
            "type": "Feature",
            "geometry": {
                "type": "Point",
                "coordinates": [
                    "-7.793782916055162",
                    "42.08739321014271"
                ]
            },
            "properties": {
                "name": "Mercado de Artesanía e Produto Local",
                "location": "Vilar de Santos",
                "link": "https://www.gzmusica.com/axenda/eventdetail/31247/-/mercado-de-artesania-e-produto-local.html",
                "dates": [
                    "2026-10-25"
                ]
            }
        },
        {
            "type": "Feature",
            "geometry": {
                "type": "Point",
                "coordinates": [
                    "-8.777787778554389",
                    "42.264770495924886"
                ]
            },
            "properties": {
                "name": "As Darbukas Dacolá",
                "location": "Cangas",
                "link": "https://www.gzmusica.com/axenda/eventdetail/31227/-/as-darbukas-dacola.html",
                "dates": [
                    "2026-10-25"
                ]
            }
        },
        {
            "type": "Feature",
            "geometry": {
                "type": "Point",
                "coordinates": [
                    "-7.820970969464549",
                    "42.610215471362615"
                ]
            },
            "properties": {
                "name": "XXI Castañazo Rock",
                "location": "Chantada",
                "link": "https://www.gzmusica.com/axenda/eventdetail/30220/-/xxi-castanazo-rock.html",
                "dates": [
                    "2026-10-30",
                    "2026-10-31"
                ]
            }
        },
        {
            "type": "Feature",
            "geometry": {
                "type": "Point",
                "coordinates": [
                    "-8.779018838104253",
                    "42.26607554698196"
                ]
            },
            "properties": {
                "name": "Lacón sin Jrelos + Satenta + Youcanthide",
                "location": "Cangas",
                "link": "https://www.gzmusica.com/axenda/eventdetail/31228/-/lacon-sin-jrelos-satenta-youcanthide.html",
                "dates": [
                    "2026-10-30"
                ]
            }
        }
    ]
}